[{"OBJECT_NAME":"STARLINK-34786","OBJECT_ID":"2025-191N","EPOCH":"2026-03-09T15:09:22.933152","MEAN_MOTION":15.05647063,"ECCENTRICITY":0.000308,"INCLINATION":97.6017,"RA_OF_ASC_NODE":301.5159,"ARG_OF_PERICENTER":76.0667,"MEAN_ANOMALY":284.0902,"EPHEMERIS_TYPE":0,"CLASSIFICATION_TYPE":"U","NORAD_CAT_ID":65391,"ELEMENT_SET_NO":999,"REV_AT_EPOCH":3026,"BSTAR":0.00047339,"MEAN_MOTION_DOT":6.776e-5,"MEAN_MOTION_DDOT":0},{"OBJECT_NAME":"COSMOS 2251 DEB","OBJECT_ID":"1993-036HX","EPOCH":"2026-03-09T21:31:03.673056","MEAN_MOTION":15.04193551,"ECCENTRICITY":0.00046843,"INCLINATION":74.0171,"RA_OF_ASC_NODE":332.1487,"ARG_OF_PERICENTER":332.3762,"MEAN_ANOMALY":27.7177,"EPHEMERIS_TYPE":0,"CLASSIFICATION_TYPE":"U","NORAD_CAT_ID":34036,"ELEMENT_SET_NO":999,"REV_AT_EPOCH":89876,"BSTAR":0.0040391987,"MEAN_MOTION_DOT":0.00056541,"MEAN_MOTION_DDOT":0}]
